CCSDS_OMM_VERS = 2.0
CREATION_DATE  = 
ORIGINATOR     = 

OBJECT_NAME    = ALSAT-3B
OBJECT_ID      = 2026-021A
CENTER_NAME    = EARTH
REF_FRAME      = TEME
TIME_SYSTEM    = UTC
MEAN_ELEMENT_THEORY = SGP/SGP4

EPOCH          = 2026-02-03T04:00:46.650240
MEAN_MOTION    = 15.23398981
ECCENTRICITY   = .0011355
INCLINATION    = 97.4735
RA_OF_ASC_NODE = 108.6510
ARG_OF_PERICENTER = 254.6358
MEAN_ANOMALY   = 105.3625

EPHEMERIS_TYPE = 0
CLASSIFICATION_TYPE = U
NORAD_CAT_ID   = 67646
ELEMENT_SET_NO = 999
REV_AT_EPOCH   = 46
BSTAR          = .31086E-3
MEAN_MOTION_DOT = .7338E-4
MEAN_MOTION_DDOT = 0

CCSDS_OMM_VERS = 2.0
CREATION_DATE  = 
ORIGINATOR     = 

OBJECT_NAME    = CZ-2C R/B
OBJECT_ID      = 2026-021B
CENTER_NAME    = EARTH
REF_FRAME      = TEME
TIME_SYSTEM    = UTC
MEAN_ELEMENT_THEORY = SGP/SGP4

EPOCH          = 2026-02-03T04:02:34.145664
MEAN_MOTION    = 15.23091080
ECCENTRICITY   = .0154314
INCLINATION    = 97.6576
RA_OF_ASC_NODE = 108.9410
ARG_OF_PERICENTER = 131.0936
MEAN_ANOMALY   = 230.3747

EPHEMERIS_TYPE = 0
CLASSIFICATION_TYPE = U
NORAD_CAT_ID   = 67647
ELEMENT_SET_NO = 999
REV_AT_EPOCH   = 44
BSTAR          = .46876E-3
MEAN_MOTION_DOT = .15387E-3
MEAN_MOTION_DDOT = 0

