ALSAT-3B                
1 67646U 26021A   26034.16720660  .00007338  00000+0  31086-3 0  9994
2 67646  97.4735 108.6510 0011355 254.6358 105.3625 15.23398981   466
CZ-2C R/B               
1 67647U 26021B   26034.16845076  .00015387  00000+0  46876-3 0  9990
2 67647  97.6576 108.9410 0154314 131.0936 230.3747 15.23091080   449
